COMMENT,ORIGINATOR,NORAD_CAT_ID,OBJECT_NAME,OBJECT_TYPE,CLASSIFICATION_TYPE,INTLDES,EPOCH,EPOCH_MICROSECONDS,MEAN_MOTION,ECCENTRICITY,INCLINATION,RA_OF_ASC_NODE,ARG_OF_PERICENTER,MEAN_ANOMALY,EPHEMERIS_TYPE,ELEMENT_SET_NO,REV_AT_EPOCH,BSTAR,MEAN_MOTION_DOT,MEAN_MOTION_DDOT,FILE,TLE_LINE0,TLE_LINE1,TLE_LINE2,OBJECT_ID,OBJECT_NUMBER,SEMIMAJOR_AXIS,PERIOD,APOGEE,PERIGEE,DECAYED
"GENERATED VIA SPACETRACK.ORG API","18 SPCS","55096","SPACEBEE-161","PAYLOAD","U","23001CR","2023-05-10 17:18:58","202208","15.18722762","0.0017031","97.4786","191.1811","131.6157","228.654","0","999","1941","0.0012838","0.00026757","0","3904830","0 SPACEBEE-161","1 55096U 23001CR  23130.72150697  .00026757  00000-0  12838-2 0  9998","2 55096  97.4786 191.1811 0017031 131.6157 228.6540 15.18722762 19419","2023-001CR","55096","6887.837","94.817","521.432","497.971","0"
"GENERATED VIA SPACETRACK.ORG API","18 SPCS","55096","SPACEBEE-161","PAYLOAD","U","23001CR","2023-05-11 02:48:13","773312","15.18738018","0.0016998","97.4789","191.5726","130.2927","229.9796","0","999","1947","0.001029","0.00021427","0","3904939","0 SPACEBEE-161","1 55096U 23001CR  23131.11682608  .00021427  00000-0  10290-2 0  9993","2 55096  97.4789 191.5726 0016998 130.2927 229.9796 15.18738018 19476","2023-001CR","55096","6887.791","94.816","521.363","497.948","0"
"GENERATED VIA SPACETRACK.ORG API","18 SPCS","55096","SPACEBEE-161","PAYLOAD","U","23001CR","2023-05-11 02:48:13","773312","15.18738018","0.0016998","97.4789","191.5726","130.2927","229.9796","0","999","1947","0.001029","0.00021427","0","3905210","0 SPACEBEE-161","1 55096U 23001CR  23131.11682608  .00021427  00000-0  10290-2 0  9993","2 55096  97.4789 191.5726 0016998 130.2927 229.9796 15.18738018 19476","2023-001CR","55096","6887.791","94.816","521.363","497.948","0"
"GENERATED VIA SPACETRACK.ORG API","18 SPCS","55096","SPACEBEE-161","PAYLOAD","U","23001CR","2023-05-11 17:02:06","400320","15.18764653","0.0017019","97.4792","192.1593","128.5077","231.7686","0","999","1956","0.0009985","0.00020804","0","3905576","0 SPACEBEE-161","1 55096U 23001CR  23131.70979630  .00020804  00000-0  99850-3 0  9990","2 55096  97.4792 192.1593 0017019 128.5077 231.7686 15.18764653 19563","2023-001CR","55096","6887.710","94.814","521.297","497.853","0"
"GENERATED VIA SPACETRACK.ORG API","18 SPCS","55096","SPACEBEE-161","PAYLOAD","U","23001CR","2023-05-12 04:06:13","396032","15.18784074","0.001701","97.4794","192.616","126.811","233.4688","0","999","1963","0.00096181","0.00020046","0","3905921","0 SPACEBEE-161","1 55096U 23001CR  23132.17098838  .00020046  00000-0  96181-3 0  9996","2 55096  97.4794 192.6160 0017010 126.8110 233.4688 15.18784074 19638","2023-001CR","55096","6887.651","94.813","521.232","497.800","0"
"GENERATED VIA SPACETRACK.ORG API","18 SPCS","55096","SPACEBEE-161","PAYLOAD","U","23001CR","2023-05-12 16:45:12","222432","15.18808129","0.0017063","97.4795","193.1374","125.3001","234.9832","0","999","1971","0.001104","0.00023045","0","3906207","0 SPACEBEE-161","1 55096U 23001CR  23132.69805813  .00023045  00000-0  11040-2 0  9994","2 55096  97.4795 193.1374 0017063 125.3001 234.9832 15.18808129 19717","2023-001CR","55096","6887.579","94.811","521.196","497.691","0"
"GENERATED VIA SPACETRACK.ORG API","18 SPCS","55096","SPACEBEE-161","PAYLOAD","U","23001CR","2023-05-12 16:45:12","222432","15.18808129","0.0017063","97.4795","193.1374","125.3001","234.9832","0","999","1971","0.001104","0.00023045","0","3906381","0 SPACEBEE-161","1 55096U 23001CR  23132.69805813  .00023045  00000-0  11040-2 0  9994","2 55096  97.4795 193.1374 0017063 125.3001 234.9832 15.18808129 19717","2023-001CR","55096","6887.579","94.811","521.196","497.691","0"
"GENERATED VIA SPACETRACK.ORG API","18 SPCS","55096","SPACEBEE-161","PAYLOAD","U","23001CR","2023-05-13 03:49:18","113952","15.18827283","0.0017077","97.4795","193.5942","123.4883","236.7986","0","999","1978","0.0010296","0.00021495","0","3906915","0 SPACEBEE-161","1 55096U 23001CR  23133.15923743  .00021495  00000-0  10296-2 0  9998","2 55096  97.4795 193.5942 0017077 123.4883 236.7986 15.18827283 19783","2023-001CR","55096","6887.521","94.810","521.147","497.624","0"
"GENERATED VIA SPACETRACK.ORG API","18 SPCS","55096","SPACEBEE-161","PAYLOAD","U","23001CR","2023-05-13 18:03:07","805088","15.18849675","0.0017111","97.4794","194.1808","121.9399","238.3502","0","999","1987","0.00087274","0.00018214","0","3907102","0 SPACEBEE-161","1 55096U 23001CR  23133.75217367  .00018214  00000-0  87274-3 0  9998","2 55096  97.4794 194.1808 0017111 121.9399 238.3502 15.18849675 19875","2023-001CR","55096","6887.453","94.809","521.103","497.533","0"
"GENERATED VIA SPACETRACK.ORG API","18 SPCS","55096","SPACEBEE-161","PAYLOAD","U","23001CR","2023-05-13 18:03:07","805088","15.18849675","0.0017111","97.4794","194.1808","121.9399","238.3502","0","999","1987","0.00087274","0.00018214","0","3907148","0 SPACEBEE-161","1 55096U 23001CR  23133.75217367  .00018214  00000-0  87274-3 0  9998","2 55096  97.4794 194.1808 0017111 121.9399 238.3502 15.18849675 19875","2023-001CR","55096","6887.453","94.809","521.103","497.533","0"
"GENERATED VIA SPACETRACK.ORG API","18 SPCS","55096","SPACEBEE-161","PAYLOAD","U","23001CR","2023-05-14 11:26:40","825824","15.18875691","0.0017052","97.4793","194.8978","119.6778","240.6156","0","999","1998","0.00077007","0.0001607","0","3907744","0 SPACEBEE-161","1 55096U 23001CR  23134.47686141  .00016070  00000-0  77007-3 0  9999","2 55096  97.4793 194.8978 0017052 119.6778 240.6156 15.18875691 19988","2023-001CR","55096","6887.374","94.807","520.984","497.495","0"
"GENERATED VIA SPACETRACK.ORG API","18 SPCS","55096","SPACEBEE-161","PAYLOAD","U","23001CR","2023-05-14 17:46:08","964192","15.18884143","0.0017027","97.4792","195.1587","118.7836","241.5111","0","999","2002","0.00077792","0.00016239","0","3908005","0 SPACEBEE-161","1 55096U 23001CR  23134.74038153  .00016239  00000-0  77792-3 0  9991","2 55096  97.4792 195.1587 0017027 118.7836 241.5111 15.18884143 20024","2023-001CR","55096","6887.349","94.806","520.941","497.487","0"
"GENERATED VIA SPACETRACK.ORG API","18 SPCS","55096","SPACEBEE-161","PAYLOAD","U","23001CR","2023-05-15 03:15:20","837376","15.18899666","0.0016967","97.4792","195.5498","117.4605","242.8357","0","999","2008","0.00079727","0.00016653","0","3908217","0 SPACEBEE-161","1 55096U 23001CR  23135.13565784  .00016653  00000-0  79727-3 0  9990","2 55096  97.4792 195.5498 0016967 117.4605 242.8357 15.18899666 20089","2023-001CR","55096","6887.302","94.805","520.853","497.481","0"
"GENERATED VIA SPACETRACK.ORG API","18 SPCS","55096","SPACEBEE-161","PAYLOAD","U","23001CR","2023-05-15 09:34:48","605088","15.1890798","0.0016936","97.4792","195.8105","116.5675","243.7298","0","999","2012","0.00078092","0.00016313","0","3908681","0 SPACEBEE-161","1 55096U 23001CR  23135.39917367  .00016313  00000-0  78092-3 0  9993","2 55096  97.4792 195.8105 0016936 116.5675 243.7298 15.18907980 20128","2023-001CR","55096","6887.277","94.805","520.806","497.477","0"
"GENERATED VIA SPACETRACK.ORG API","18 SPCS","55096","SPACEBEE-161","PAYLOAD","U","23001CR","2023-05-15 15:54:16","239744","15.18916975","0.0016929","97.4792","196.0714","115.7364","244.562","0","999","2016","0.00076485","0.00015979","0","3908892","0 SPACEBEE-161","1 55096U 23001CR  23135.66268796  .00015979  00000-0  76485-3 0  9999","2 55096  97.4792 196.0714 0016929 115.7364 244.5620 15.18916975 20161","2023-001CR","55096","6887.250","94.804","520.774","497.455","0"
"GENERATED VIA SPACETRACK.ORG API","18 SPCS","55096","SPACEBEE-161","PAYLOAD","U","23001CR","2023-05-16 02:58:19","281792","15.18933376","0.0016911","97.4793","196.5278","114.3187","245.9815","0","999","2023","0.00080368","0.00016803","0","3909472","0 SPACEBEE-161","1 55096U 23001CR  23136.12383428  .00016803  00000-0  80368-3 0  9993","2 55096  97.4793 196.5278 0016911 114.3187 245.9815 15.18933376 20234","2023-001CR","55096","6887.200","94.803","520.712","497.418","0"
"GENERATED VIA SPACETRACK.ORG API","18 SPCS","55096","SPACEBEE-161","PAYLOAD","U","23001CR","2023-05-17 02:41:15","887616","15.18963526","0.0016924","97.4794","197.506","111.1941","249.1103","0","999","2038","0.0007083","0.0001481","0","3909882","0 SPACEBEE-161","1 55096U 23001CR  23137.11198944  .00014810  00000-0  70830-3 0  9999","2 55096  97.4794 197.5060 0016924 111.1941 249.1103 15.18963526 20384","2023-001CR","55096","6887.109","94.801","520.630","497.318","0"
"GENERATED VIA SPACETRACK.ORG API","18 SPCS","55096","SPACEBEE-161","PAYLOAD","U","23001CR","2023-05-17 21:39:35","927424","15.18986427","0.001698","97.4793","198.2885","108.7959","251.5119","0","999","2050","0.00064335","0.00013452","0","3910633","0 SPACEBEE-161","1 55096U 23001CR  23137.90249916  .00013452  00000-0  64335-3 0  9996","2 55096  97.4793 198.2885 0016980 108.7959 251.5119 15.18986427 20502","2023-001CR","55096","6887.040","94.800","520.599","497.210","0"
"GENERATED VIA SPACETRACK.ORG API","18 SPCS","55096","SPACEBEE-161","PAYLOAD","U","23001CR","2023-05-18 03:59:02","369760","15.18993928","0.0016953","97.4793","198.5494","108.0258","252.2825","0","999","2054","0.00061379","0.00012833","0","3911110","0 SPACEBEE-161","1 55096U 23001CR  23138.16599965  .00012833  00000-0  61379-3 0  9994","2 55096  97.4793 198.5494 0016953 108.0258 252.2825 15.18993928 20546","2023-001CR","55096","6887.017","94.800","520.557","497.206","0"
"GENERATED VIA SPACETRACK.ORG API","18 SPCS","55096","SPACEBEE-161","PAYLOAD","U","23001CR","2023-05-18 03:59:02","369760","15.18993928","0.0016953","97.4793","198.5494","108.0258","252.2825","0","999","2054","0.00061379","0.00012833","0","3911221","0 SPACEBEE-161","1 55096U 23001CR  23138.16599965  .00012833  00000-0  61379-3 0  9994","2 55096  97.4793 198.5494 0016953 108.0258 252.2825 15.18993928 20546","2023-001CR","55096","6887.017","94.800","520.557","497.206","0"
